{"type": "FeatureCollection", "features": [{"type": "Feature", "properties": {"norad_id": 28054, "name": "DMSP 5D-3 F16 (USA 172)", "group": "weather", "lat": 52.426862300742435, "lon": -173.06125717475695, "alt_km": 843.0409162861324, "timestamp": "2025-12-03T15:48:02.748023+00:00", "meta": {"OBJECT_NAME": "DMSP 5D-3 F16 (USA 172)", "OBJECT_ID": "2003-048A", "EPOCH": "2025-12-03T08:42:52.060320", "MEAN_MOTION": 14.14418821, "ECCENTRICITY": 0.00068882, "INCLINATION": 99.0053, "RA_OF_ASC_NODE": 354.7461, "ARG_OF_PERICENTER": 349.4115, "MEAN_ANOMALY": 74.4892, "EPHEMERIS_TYPE": 0, "CLASSIFICATION_TYPE": "U", "NORAD_CAT_ID": 28054, "ELEMENT_SET_NO": 999, "REV_AT_EPOCH": 14180, "BSTAR": 0.00014229265, "MEAN_MOTION_DOT": 2.27e-06, "MEAN_MOTION_DDOT": 0}, "tle": {"line1": "1 28054U 03048A   25337.36310255  .00000227  00000+0  14229-3 0  9990", "line2": "2 28054  99.0053 354.7461 0006888 349.4115  74.4892 14.14418821141806"}}, "geometry": {"type": "Point", "coordinates": [-173.06125717475695, 52.426862300742435]}}, {"type": "Feature", "properties": {"norad_id": 28912, "name": "METEOSAT-9 (MSG-2)", "group": "weather", "lat": -7.759876873206438, "lon": -4.31749022925005, "alt_km": 35794.095820949944, "timestamp": "2025-12-03T15:48:02.748075+00:00", "meta": {"OBJECT_NAME": "METEOSAT-9 (MSG-2)", "OBJECT_ID": "2005-049B", "EPOCH": "2025-12-02T20:50:55.807872", "MEAN_MOTION": 1.00271253, "ECCENTRICITY": 0.00040042, "INCLINATION": 8.9157, "RA_OF_ASC_NODE": 56.0648, "ARG_OF_PERICENTER": 185.08, "MEAN_ANOMALY": 189.154, "EPHEMERIS_TYPE": 0, "CLASSIFICATION_TYPE": "U", "NORAD_CAT_ID": 28912, "ELEMENT_SET_NO": 999, "REV_AT_EPOCH": 503, "BSTAR": 0, "MEAN_MOTION_DOT": 1.39e-06, "MEAN_MOTION_DDOT": 0}, "tle": {"line1": "1 28912U 05049B   25336.86870148  .00000139  00000+0  00000+0 0  9992", "line2": "2 28912   8.9157  56.0648 0004004 185.0800 189.1540  1.00271253  5030"}}, "geometry": {"type": "Point", "coordinates": [-4.31749022925005, -7.759876873206438]}}, {"type": "Feature", "properties": {"norad_id": 29522, "name": "DMSP 5D-3 F17 (USA 191)", "group": "weather", "lat": 50.102194454504335, "lon": -27.36542576238117, "alt_km": 844.0970447640375, "timestamp": "2025-12-03T15:48:02.748092+00:00", "meta": {"OBJECT_NAME": "DMSP 5D-3 F17 (USA 191)", "OBJECT_ID": "2006-050A", "EPOCH": "2025-12-03T07:04:29.404128", "MEAN_MOTION": 14.14912983, "ECCENTRICITY": 0.00091568, "INCLINATION": 98.7394, "RA_OF_ASC_NODE": 342.8805, "ARG_OF_PERICENTER": 254.3825, "MEAN_ANOMALY": 105.6338, "EPHEMERIS_TYPE": 0, "CLASSIFICATION_TYPE": "U", "NORAD_CAT_ID": 29522, "ELEMENT_SET_NO": 999, "REV_AT_EPOCH": 98471, "BSTAR": 0.00016638242, "MEAN_MOTION_DOT": 2.78e-06, "MEAN_MOTION_DDOT": 0}, "tle": {"line1": "1 29522U 06050A   25337.29478477  .00000278  00000+0  16638-3 0  9992", "line2": "2 29522  98.7394 342.8805 0009156 254.3825 105.6338 14.14912983984719"}}, "geometry": {"type": "Point", "coordinates": [-27.36542576238117, 50.102194454504335]}}, {"type": "Feature", "properties": {"norad_id": 32958, "name": "FENGYUN 3A", "group": "weather", "lat": -24.84838350902473, "lon": -78.57200770516616, "alt_km": 826.5232929615431, "timestamp": "2025-12-03T15:48:02.748106+00:00", "meta": {"OBJECT_NAME": "FENGYUN 3A", "OBJECT_ID": "2008-026A", "EPOCH": "2025-12-03T07:27:37.529856", "MEAN_MOTION": 14.19509604, "ECCENTRICITY": 0.00083542, "INCLINATION": 98.6684, "RA_OF_ASC_NODE": 277.0368, "ARG_OF_PERICENTER": 339.5344, "MEAN_ANOMALY": 20.5497, "EPHEMERIS_TYPE": 0, "CLASSIFICATION_TYPE": "U", "NORAD_CAT_ID": 32958, "ELEMENT_SET_NO": 999, "REV_AT_EPOCH": 90761, "BSTAR": 0.00010798259, "MEAN_MOTION_DOT": 1.84e-06, "MEAN_MOTION_DDOT": 0}, "tle": {"line1": "1 32958U 08026A   25337.31085104  .00000184  00000+0  10798-3 0  9995", "line2": "2 32958  98.6684 277.0368 0008354 339.5344  20.5497 14.19509604907613"}}, "geometry": {"type": "Point", "coordinates": [-78.57200770516616, -24.84838350902473]}}, {"type": "Feature", "properties": {"norad_id": 35491, "name": "GOES 14", "group": "weather", "lat": 1.0328333379753876, "lon": -158.62595628683422, "alt_km": 35771.1185317666, "timestamp": "2025-12-03T15:48:02.748120+00:00", "meta": {"OBJECT_NAME": "GOES 14", "OBJECT_ID": "2009-033A", "EPOCH": "2025-12-03T04:40:46.515648", "MEAN_MOTION": 1.00272649, "ECCENTRICITY": 0.00041773, "INCLINATION": 1.1725, "RA_OF_ASC_NODE": 85.5198, "ARG_OF_PERICENTER": 150.2207, "MEAN_ANOMALY": 158.4028, "EPHEMERIS_TYPE": 0, "CLASSIFICATION_TYPE": "U", "NORAD_CAT_ID": 35491, "ELEMENT_SET_NO": 999, "REV_AT_EPOCH": 462, "BSTAR": 0, "MEAN_MOTION_DOT": -4.9e-07, "MEAN_MOTION_DDOT": 0}, "tle": {"line1": "1 35491U 09033A   25337.19498282 -.00000049  00000+0  00000+0 0  9992", "line2": "2 35491   1.1725  85.5198 0004177 150.2207 158.4028  1.00272649  4623"}}, "geometry": {"type": "Point", "coordinates": [-158.62595628683422, 1.0328333379753876]}}, {"type": "Feature", "properties": {"norad_id": 35951, "name": "DMSP 5D-3 F18 (USA 210)", "group": "weather", "lat": -74.20553460850402, "lon": -12.333328843955396, "alt_km": 858.782740711602, "timestamp": "2025-12-03T15:48:02.748131+00:00", "meta": {"OBJECT_NAME": "DMSP 5D-3 F18 (USA 210)", "OBJECT_ID": "2009-057A", "EPOCH": "2025-12-03T05:58:48.318240", "MEAN_MOTION": 14.14760404, "ECCENTRICITY": 0.00121152, "INCLINATION": 98.8823, "RA_OF_ASC_NODE": 313.698, "ARG_OF_PERICENTER": 87.409, "MEAN_ANOMALY": 272.847, "EPHEMERIS_TYPE": 0, "CLASSIFICATION_TYPE": "U", "NORAD_CAT_ID": 35951, "ELEMENT_SET_NO": 999, "REV_AT_EPOCH": 83188, "BSTAR": 0.00022516674, "MEAN_MOTION_DOT": 3.9e-06, "MEAN_MOTION_DDOT": 0}, "tle": {"line1": "1 35951U 09057A   25337.24917035  .00000390  00000+0  22517-3 0  9996", "line2": "2 35951  98.8823 313.6980 0012115  87.4090 272.8470 14.14760404831880"}}, "geometry": {"type": "Point", "coordinates": [-12.333328843955396, -74.20553460850402]}}, {"type": "Feature", "properties": {"norad_id": 36411, "name": "EWS-G2 (GOES 15)", "group": "weather", "lat": -0.7406448643682025, "lon": 11.29313586456204, "alt_km": 35798.161575561695, "timestamp": "2025-12-03T15:48:02.748142+00:00", "meta": {"OBJECT_NAME": "EWS-G2 (GOES 15)", "OBJECT_ID": "2010-008A", "EPOCH": "2025-12-03T05:29:11.878080", "MEAN_MOTION": 1.00267683, "ECCENTRICITY": 0.0005953, "INCLINATION": 0.7884, "RA_OF_ASC_NODE": 86.0546, "ARG_OF_PERICENTER": 169.7721, "MEAN_ANOMALY": 320.2973, "EPHEMERIS_TYPE": 0, "CLASSIFICATION_TYPE": "U", "NORAD_CAT_ID": 36411, "ELEMENT_SET_NO": 999, "REV_AT_EPOCH": 5767, "BSTAR": 0, "MEAN_MOTION_DOT": 5.6e-07, "MEAN_MOTION_DDOT": 0}, "tle": {"line1": "1 36411U 10008A   25337.22860970  .00000056  00000+0  00000+0 0  9997", "line2": "2 36411   0.7884  86.0546 0005953 169.7721 320.2973  1.00267683 57672"}}, "geometry": {"type": "Point", "coordinates": [11.29313586456204, -0.7406448643682025]}}, {"type": "Feature", "properties": {"norad_id": 36744, "name": "COMS 1", "group": "weather", "lat": 0.010524376370610758, "lon": 77.90468229387926, "alt_km": 35791.27201099251, "timestamp": "2025-12-03T15:48:02.748153+00:00", "meta": {"OBJECT_NAME": "COMS 1", "OBJECT_ID": "2010-032A", "EPOCH": "2025-12-03T05:48:17.548128", "MEAN_MOTION": 1.00269913, "ECCENTRICITY": 0.00010871, "INCLINATION": 4.3168, "RA_OF_ASC_NODE": 78.1013, "ARG_OF_PERICENTER": 183.1187, "MEAN_ANOMALY": 26.3577, "EPHEMERIS_TYPE": 0, "CLASSIFICATION_TYPE": "U", "NORAD_CAT_ID": 36744, "ELEMENT_SET_NO": 999, "REV_AT_EPOCH": 4912, "BSTAR": 0, "MEAN_MOTION_DOT": -3.27e-06, "MEAN_MOTION_DDOT": 0}, "tle": {"line1": "1 36744U 10032A   25337.24186977 -.00000327  00000+0  00000+0 0  9995", "line2": "2 36744   4.3168  78.1013 0001087 183.1187  26.3577  1.00269913 49120"}}, "geometry": {"type": "Point", "coordinates": [77.90468229387926, 0.010524376370610758]}}, {"type": "Feature", "properties": {"norad_id": 37214, "name": "FENGYUN 3B", "group": "weather", "lat": -65.19059497924535, "lon": 177.54010772053456, "alt_km": 861.990511573782, "timestamp": "2025-12-03T15:48:02.748163+00:00", "meta": {"OBJECT_NAME": "FENGYUN 3B", "OBJECT_ID": "2010-059A", "EPOCH": "2025-12-03T08:28:08.109696", "MEAN_MOTION": 14.14785502, "ECCENTRICITY": 0.00224479, "INCLINATION": 98.9921, "RA_OF_ASC_NODE": 17.2641, "ARG_OF_PERICENTER": 24.2133, "MEAN_ANOMALY": 107.613, "EPHEMERIS_TYPE": 0, "CLASSIFICATION_TYPE": "U", "NORAD_CAT_ID": 37214, "ELEMENT_SET_NO": 999, "REV_AT_EPOCH": 77973, "BSTAR": 0.00010323432, "MEAN_MOTION_DOT": 1.54e-06, "MEAN_MOTION_DDOT": 0}, "tle": {"line1": "1 37214U 10059A   25337.35287164  .00000154  00000+0  10323-3 0  9999", "line2": "2 37214  98.9921  17.2641 0022447  24.2133 107.6130 14.14785502779730"}}, "geometry": {"type": "Point", "coordinates": [177.54010772053456, -65.19059497924535]}}, {"type": "Feature", "properties": {"norad_id": 37849, "name": "SUOMI NPP", "group": "weather", "lat": -64.9296982924379, "lon": -65.63587619068632, "alt_km": 835.460979008848, "timestamp": "2025-12-03T15:48:02.748174+00:00", "meta": {"OBJECT_NAME": "SUOMI NPP", "OBJECT_ID": "2011-061A", "EPOCH": "2025-12-03T07:39:17.786304", "MEAN_MOTION": 14.1950988, "ECCENTRICITY": 0.00018954, "INCLINATION": 98.7759, "RA_OF_ASC_NODE": 274.746, "ARG_OF_PERICENTER": 136.9409, "MEAN_ANOMALY": 223.1915, "EPHEMERIS_TYPE": 0, "CLASSIFICATION_TYPE": "U", "NORAD_CAT_ID": 37849, "ELEMENT_SET_NO": 999, "REV_AT_EPOCH": 73065, "BSTAR": 9.6913225e-05, "MEAN_MOTION_DOT": 1.6e-06, "MEAN_MOTION_DDOT": 0}, "tle": {"line1": "1 37849U 11061A   25337.31895586  .00000160  00000+0  96913-4 0  9993", "line2": "2 37849  98.7759 274.7460 0001895 136.9409 223.1915 14.19509880730652"}}, "geometry": {"type": "Point", "coordinates": [-65.63587619068632, -64.9296982924379]}}]}